{
  "norad_id": 61780,
  "name": "SITRO-AIS 37",
  "history": [
    {
      "epoch": "2026-03-28T22:22:49.944000Z",
      "apogee_km": 416.1551141021464,
      "perigee_km": 405.69045734843075,
      "latitude_deg": 5.533486745146768e-05,
      "longitude_deg": 160.33272088719005,
      "height_km": 418.54195035086707,
      "semi_major_axis_km": 6789.059785725289,
      "eccentricity": 0.0007707,
      "inclination_deg": 97.3073,
      "raan_deg": 322.3867,
      "arg_perigee_deg": 211.1716,
      "mean_anomaly_deg": 148.9081,
      "mean_motion_rev_day": 15.51987833
    },
    {
      "epoch": "2026-03-29T04:34:12.594720Z",
      "apogee_km": 416.076962225583,
      "perigee_km": 405.5757936725722,
      "latitude_deg": 2.606245459522658e-05,
      "longitude_deg": 67.49634781601411,
      "height_km": 418.51319517188944,
      "semi_major_axis_km": 6788.963377949078,
      "eccentricity": 0.0007734,
      "inclination_deg": 97.3073,
      "raan_deg": 322.6489,
      "arg_perigee_deg": 210.0556,
      "mean_anomaly_deg": 150.0254,
      "mean_motion_rev_day": 15.52020892
    },
    {
      "epoch": "2026-03-30T03:46:48.798336Z",
      "apogee_km": 415.8427983306274,
      "perigee_km": 405.18733005067406,
      "latitude_deg": -1.3269087048589917e-05,
      "longitude_deg": 79.37600187247737,
      "height_km": 418.4387408072379,
      "semi_major_axis_km": 6788.652064190651,
      "eccentricity": 0.0007848,
      "inclination_deg": 97.3069,
      "raan_deg": 323.6326,
      "arg_perigee_deg": 206.1686,
      "mean_anomaly_deg": 153.9171,
      "mean_motion_rev_day": 15.52127652
    }
  ]
}